[
    {
        "Altitude(m)": 568047.0289443836,
        "Argument of Periapsis(deg)": -0.037671934638287344,
        "Eccentricity": 0.0,
        "Inclination(deg)": 97.0,
        "Latitude(deg)": -9.003065263509606,
        "Longitude(deg)": -12.81992217524734,
        "Mean Anomaly(deg)": -8.855661218020792,
        "RAAN(deg)": 90.00991175603086,
        "Satellite Name": "Starlink Shell 3 1805",
        "Satellite Number": 1805,
        "Semi-Major Axis(m)": 6938478.169268562,
        "Time(s)": 950
    },
    {
        "Altitude(m)": 567908.070709445,
        "Argument of Periapsis(deg)": -0.03806848131869037,
        "Eccentricity": 0.0,
        "Inclination(deg)": 97.0,
        "Latitude(deg)": -8.379164268280668,
        "Longitude(deg)": -12.93958119307709,
        "Mean Anomaly(deg)": -8.230185020315734,
        "RAAN(deg)": 90.01001609030487,
        "Satellite Name": "Starlink Shell 3 1805",
        "Satellite Number": 1805,
        "Semi-Major Axis(m)": 6938478.169268562,
        "Time(s)": 960
    },
    {
        "Altitude(m)": 567773.0896741418,
        "Argument of Periapsis(deg)": -0.0384650279990934,
        "Eccentricity": 0.0,
        "Inclination(deg)": 97.0,
        "Latitude(deg)": -7.75520854513185,
        "Longitude(deg)": -13.05899533156095,
        "Mean Anomaly(deg)": -7.604708822610662,
        "RAAN(deg)": 90.01012042457886,
        "Satellite Name": "Starlink Shell 3 1805",
        "Satellite Number": 1805,
        "Semi-Major Axis(m)": 6938478.169268562,
        "Time(s)": 970
    },
    {
        "Altitude(m)": 567642.1221406889,
        "Argument of Periapsis(deg)": -0.03886157467949641,
        "Eccentricity": 0.0,
        "Inclination(deg)": 97.0,
        "Latitude(deg)": -7.131201070615613,
        "Longitude(deg)": -13.178184038911262,
        "Mean Anomaly(deg)": -6.979232624905705,
        "RAAN(deg)": 90.01022475885287,
        "Satellite Name": "Starlink Shell 3 1805",
        "Satellite Number": 1805,
        "Semi-Major Axis(m)": 6938478.169268562,
        "Time(s)": 980
    },
    {
        "Altitude(m)": 567515.2024336499,
        "Argument of Periapsis(deg)": -0.03925812135989944,
        "Eccentricity": 0.0,
        "Inclination(deg)": 97.0,
        "Latitude(deg)": -6.507144821820292,
        "Longitude(deg)": -13.297166044170094,
        "Mean Anomaly(deg)": -6.353756427200659,
        "RAAN(deg)": 90.0103290931269,
        "Satellite Name": "Starlink Shell 3 1805",
        "Satellite Number": 1805,
        "Semi-Major Axis(m)": 6938478.169268562,
        "Time(s)": 990
    }
]